{
  "type": "FeatureCollection",
  "features": [
    {
      "type": "Feature",
      "properties": {
        "norad_id": 40545,
        "name": "GSAT0204 (GALILEO 8)",
        "group": "gnss",
        "lat": 2.968634201711689,
        "lon": 164.88503750432145,
        "alt_km": 23220.23883959478,
        "timestamp": "2025-12-07T22:37:43.321689+00:00",
        "meta_object_name": "GSAT0204 (GALILEO 8)",
        "meta_object_id": "2015-017B",
        "meta_epoch": "2025-12-04T03:15:24.834240",
        "meta_mean_motion": 1.70475395,
        "meta_eccentricity": 0.00062587,
        "meta_inclination": 56.8537,
        "meta_ra_of_asc_node": 346.9325,
        "meta_arg_of_pericenter": 261.1307,
        "meta_mean_anomaly": 98.8308,
        "meta_ephemeris_type": 0,
        "meta_classification_type": "U",
        "meta_norad_cat_id": 40545,
        "meta_element_set_no": 999,
        "meta_rev_at_epoch": 2892,
        "meta_bstar": 0,
        "meta_mean_motion_dot": -7.1e-07,
        "meta_mean_motion_ddot": 0,
        "tle_line1": "1 40545U 15017B   25338.13570410 -.00000071  00000+0  00000+0 0  9991",
        "tle_line2": "2 40545  56.8537 346.9325 0006258 261.1307  98.8308  1.70475395 28925"
      },
      "geometry": {
        "type": "Point",
        "coordinates": [
          164.88503750432145,
          2.968634201711689
        ]
      }
    },
    {
      "type": "Feature",
      "properties": {
        "norad_id": 40730,
        "name": "GPS BIIF-10 (PRN 08)",
        "group": "gnss",
        "lat": 38.11715920386674,
        "lon": 60.429081518977405,
        "alt_km": 20244.180100140693,
        "timestamp": "2025-12-07T22:37:43.321700+00:00",
        "meta_object_name": "GPS BIIF-10 (PRN 08)",
        "meta_object_id": "2015-033A",
        "meta_epoch": "2025-12-07T06:23:22.646112",
        "meta_mean_motion": 2.00565795,
        "meta_eccentricity": 0.01106155,
        "meta_inclination": 54.1355,
        "meta_ra_of_asc_node": 274.9981,
        "meta_arg_of_pericenter": 26.6749,
        "meta_mean_anomaly": 333.904,
        "meta_ephemeris_type": 0,
        "meta_classification_type": "U",
        "meta_norad_cat_id": 40730,
        "meta_element_set_no": 999,
        "meta_rev_at_epoch": 7614,
        "meta_bstar": 0,
        "meta_mean_motion_dot": -3.3e-07,
        "meta_mean_motion_ddot": 0,
        "tle_line1": "1 40730U 15033A   25341.26623433 -.00000033  00000+0  00000+0 0  9995",
        "tle_line2": "2 40730  54.1355 274.9981 0110615  26.6749 333.9040  2.00565795 76146"
      },
      "geometry": {
        "type": "Point",
        "coordinates": [
          60.429081518977405,
          38.11715920386674
        ]
      }
    },
    {
      "type": "Feature",
      "properties": {
        "norad_id": 40748,
        "name": "BEIDOU-3S M2S (C58)",
        "group": "gnss",
        "lat": -22.940568446297426,
        "lon": 145.81792865141207,
        "alt_km": 21513.665638610357,
        "timestamp": "2025-12-07T22:37:43.321712+00:00",
        "meta_object_name": "BEIDOU-3S M2S (C58)",
        "meta_object_id": "2015-037A",
        "meta_epoch": "2025-12-04T09:50:19.277376",
        "meta_mean_motion": 1.86229056,
        "meta_eccentricity": 0.00124004,
        "meta_inclination": 55.0462,
        "meta_ra_of_asc_node": 308.7497,
        "meta_arg_of_pericenter": 267.6151,
        "meta_mean_anomaly": 92.2259,
        "meta_ephemeris_type": 0,
        "meta_classification_type": "U",
        "meta_norad_cat_id": 40748,
        "meta_element_set_no": 999,
        "meta_rev_at_epoch": 7049,
        "meta_bstar": 0,
        "meta_mean_motion_dot": -6.8e-07,
        "meta_mean_motion_ddot": 0,
        "tle_line1": "1 40748U 15037A   25338.40994534 -.00000068  00000+0  00000+0 0  9991",
        "tle_line2": "2 40748  55.0462 308.7497 0012400 267.6151  92.2259  1.86229056 70498"
      },
      "geometry": {
        "type": "Point",
        "coordinates": [
          145.81792865141207,
          -22.940568446297426
        ]
      }
    },
    {
      "type": "Feature",
      "properties": {
        "norad_id": 40749,
        "name": "BEIDOU-3S M1S (C57)",
        "group": "gnss",
        "lat": 41.46398723650836,
        "lon": -13.24868023574409,
        "alt_km": 21515.835590390816,
        "timestamp": "2025-12-07T22:37:43.321726+00:00",
        "meta_object_name": "BEIDOU-3S M1S (C57)",
        "meta_object_id": "2015-037B",
        "meta_epoch": "2025-12-01T22:57:46.412352",
        "meta_mean_motion": 1.86253762,
        "meta_eccentricity": 0.0003321,
        "meta_inclination": 55.0451,
        "meta_ra_of_asc_node": 308.8236,
        "meta_arg_of_pericenter": 355.9906,
        "meta_mean_anomaly": 3.9975,
        "meta_ephemeris_type": 0,
        "meta_classification_type": "U",
        "meta_norad_cat_id": 40749,
        "meta_element_set_no": 999,
        "meta_rev_at_epoch": 7045,
        "meta_bstar": 0,
        "meta_mean_motion_dot": -6e-07,
        "meta_mean_motion_ddot": 0,
        "tle_line1": "1 40749U 15037B   25335.95678718 -.00000060  00000+0  00000+0 0  9994",
        "tle_line2": "2 40749  55.0451 308.8236 0003321 355.9906   3.9975  1.86253762 70451"
      },
      "geometry": {
        "type": "Point",
        "coordinates": [
          -13.24868023574409,
          41.46398723650836
        ]
      }
    },
    {
      "type": "Feature",
      "properties": {
        "norad_id": 40889,
        "name": "GSAT0205 (GALILEO 9)",
        "group": "gnss",
        "lat": -32.81004216191712,
        "lon": -159.9203902636975,
        "alt_km": 23223.545211851797,
        "timestamp": "2025-12-07T22:37:43.321755+00:00",
        "meta_object_name": "GSAT0205 (GALILEO 9)",
        "meta_object_id": "2015-045A",
        "meta_epoch": "2025-12-06T20:05:28.161600",
        "meta_mean_motion": 1.70472973,
        "meta_eccentricity": 0.00059315,
        "meta_inclination": 55.0055,
        "meta_ra_of_asc_node": 226.9215,
        "meta_arg_of_pericenter": 39.3036,
        "meta_mean_anomaly": 320.836,
        "meta_ephemeris_type": 0,
        "meta_classification_type": "U",
        "meta_norad_cat_id": 40889,
        "meta_element_set_no": 999,
        "meta_rev_at_epoch": 6373,
        "meta_bstar": 0,
        "meta_mean_motion_dot": 2.8e-07,
        "meta_mean_motion_ddot": 0,
        "tle_line1": "1 40889U 15045A   25340.83713150  .00000028  00000+0  00000+0 0  9994",
        "tle_line2": "2 40889  55.0055 226.9215 0005931  39.3036 320.8360  1.70472973 63731"
      },
      "geometry": {
        "type": "Point",
        "coordinates": [
          -159.9203902636975,
          -32.81004216191712
        ]
      }
    },
    {
      "type": "Feature",
      "properties": {
        "norad_id": 40890,
        "name": "GSAT0206 (GALILEO 10)",
        "group": "gnss",
        "lat": -2.699184782556048,
        "lon": 48.786495120112995,
        "alt_km": 23232.132879603127,
        "timestamp": "2025-12-07T22:37:43.321768+00:00",
        "meta_object_name": "GSAT0206 (GALILEO 10)",
        "meta_object_id": "2015-045B",
        "meta_epoch": "2025-12-05T21:13:48.980352",
        "meta_mean_motion": 1.70473029,
        "meta_eccentricity": 0.00035588,
        "meta_inclination": 55.0048,
        "meta_ra_of_asc_node": 226.9429,
        "meta_arg_of_pericenter": 32.2764,
        "meta_mean_anomaly": 327.8431,
        "meta_ephemeris_type": 0,
        "meta_classification_type": "U",
        "meta_norad_cat_id": 40890,
        "meta_element_set_no": 999,
        "meta_rev_at_epoch": 6374,
        "meta_bstar": 0,
        "meta_mean_motion_dot": 3.5e-07,
        "meta_mean_motion_ddot": 0,
        "tle_line1": "1 40890U 15045B   25339.88459468  .00000035  00000+0  00000+0 0  9996",
        "tle_line2": "2 40890  55.0048 226.9429 0003558  32.2764 327.8431  1.70473029 63745"
      },
      "geometry": {
        "type": "Point",
        "coordinates": [
          48.786495120112995,
          -2.699184782556048
        ]
      }
    },
    {
      "type": "Feature",
      "properties": {
        "norad_id": 40938,
        "name": "BEIDOU-3S IGSO-2S (C56)",
        "group": "gnss",
        "lat": -46.3752310094276,
        "lon": 144.4383857735581,
        "alt_km": 35675.16461941066,
        "timestamp": "2025-12-07T22:37:43.321781+00:00",
        "meta_object_name": "BEIDOU-3S IGSO-2S (C56)",
        "meta_object_id": "2015-053A",
        "meta_epoch": "2025-12-03T17:17:32.013024",
        "meta_mean_motion": 1.0027148,
        "meta_eccentricity": 0.00611089,
        "meta_inclination": 49.5266,
        "meta_ra_of_asc_node": 261.1136,
        "meta_arg_of_pericenter": 188.632,
        "meta_mean_anomaly": 338.5579,
        "meta_ephemeris_type": 0,
        "meta_classification_type": "U",
        "meta_norad_cat_id": 40938,
        "meta_element_set_no": 999,
        "meta_rev_at_epoch": 3739,
        "meta_bstar": 0,
        "meta_mean_motion_dot": -1.53e-06,
        "meta_mean_motion_ddot": 0,
        "tle_line1": "1 40938U 15053A   25337.72050941 -.00000153  00000+0  00000+0 0  9994",
        "tle_line2": "2 40938  49.5266 261.1136 0061108 188.6320 338.5579  1.00271480 37397"
      },
      "geometry": {
        "type": "Point",
        "coordinates": [
          144.4383857735581,
          -46.3752310094276
        ]
      }
    }
  ]
}